CCSDS_OMM_VERS,COMMENT,CREATION_DATE,ORIGINATOR,OBJECT_NAME,OBJECT_ID,CENTER_NAME,REF_FRAME,TIME_SYSTEM,MEAN_ELEMENT_THEORY,EPOCH,MEAN_MOTION,ECCENTRICITY,INCLINATION,RA_OF_ASC_NODE,ARG_OF_PERICENTER,MEAN_ANOMALY,EPHEMERIS_TYPE,CLASSIFICATION_TYPE,NORAD_CAT_ID,ELEMENT_SET_NO,REV_AT_EPOCH,BSTAR,MEAN_MOTION_DOT,MEAN_MOTION_DDOT,SEMIMAJOR_AXIS,PERIOD,APOAPSIS,PERIAPSIS,OBJECT_TYPE,RCS_SIZE,COUNTRY_CODE,LAUNCH_DATE,SITE,DECAY_DATE,FILE,GP_ID,TLE_LINE0,TLE_LINE1,TLE_LINE2
2,GENERATED VIA SPACE-TRACK.ORG API,2019-01-15T14:16:19,18 SPCS,BREEZE-M R/B,2000-029B,EARTH,TEME,UTC,SGP4,2019-01-15T13:06:07.780896,1.00310766,0.0271196,12.0814,26.4265,268.9357,184.7396,0,U,26373,999,6823,0.0,-7.9e-07,0,42153.807,1435.538,36918.867,34632.478,ROCKET BODY,LARGE,CIS,2000-06-06,TTMTR,,2395235,126006420,0 BREEZE-M R/B,1 26373U 00029B   19015.54592339 -.00000079  00000-0  00000+0 0  9994,2 26373  12.0814  26.4265 0271196 268.9357 184.7396  1.00310766 68231
2,GENERATED VIA SPACE-TRACK.ORG API,2019-01-16T05:21:45,18 SPCS,BREEZE-M R/B,2000-029B,EARTH,TEME,UTC,SGP4,2019-01-15T18:57:20.385792,1.00310805,0.0271192,12.0816,26.4244,268.9432,272.8107,0,U,26373,999,6824,0.0,-7.8e-07,0,42153.796,1435.538,36918.839,34632.484,ROCKET BODY,LARGE,CIS,2000-06-06,TTMTR,,2395566,126018552,0 BREEZE-M R/B,1 26373U 00029B   19015.78981928 -.00000078 +00000-0 +00000-0 0  9996,2 26373 012.0816 026.4244 0271192 268.9432 272.8107 01.00310805068244
2,GENERATED VIA SPACE-TRACK.ORG API,2019-01-17T05:44:57,18 SPCS,BREEZE-M R/B,2000-029B,EARTH,TEME,UTC,SGP4,2019-01-16T19:13:22.931904,1.00310939,0.0271167,12.0823,26.4157,268.9721,277.9374,0,U,26373,999,6825,0.0,-7.7e-07,0,42153.759,1435.536,36918.695,34632.553,ROCKET BODY,LARGE,CIS,2000-06-06,TTMTR,,2396069,126039550,0 BREEZE-M R/B,1 26373U 00029B   19016.80095986 -.00000077 +00000-0 +00000-0 0  9999,2 26373 012.0823 026.4157 0271167 268.9721 277.9374 01.00310939068259
2,GENERATED VIA SPACE-TRACK.ORG API,2019-01-18T05:00:25,18 SPCS,BREEZE-M R/B,2000-029B,EARTH,TEME,UTC,SGP4,2019-01-17T06:59:47.609664,1.00311002,0.0271151,12.0826,26.4115,268.9863,95.0815,0,U,26373,999,6826,0.0,-7.7e-07,0,42153.741,1435.535,36918.609,34632.603,ROCKET BODY,LARGE,CIS,2000-06-06,TTMTR,,2396563,126061436,0 BREEZE-M R/B,1 26373U 00029B   19017.29152326 -.00000077 +00000-0 +00000-0 0  9995,2 26373 012.0826 026.4115 0271151 268.9863 095.0815 01.00311002068268
2,GENERATED VIA SPACE-TRACK.ORG API,2019-01-17T22:48:17,18 SPCS,BREEZE-M R/B,2000-029B,EARTH,TEME,UTC,SGP4,2019-01-17T17:58:32.736864,1.00311064,0.0271144,12.083,26.4075,268.9974,260.2768,0,U,26373,999,6825,0.0,-7.8e-07,0,42153.724,1435.534,36918.562,34632.616,ROCKET BODY,LARGE,CIS,2000-06-06,TTMTR,,2396407,126052290,0 BREEZE-M R/B,1 26373U 00029B   19017.74899001 -.00000078  00000-0  00000+0 0  9993,2 26373  12.0830  26.4075 0271144 268.9974 260.2768  1.00311064 68253
2,GENERATED VIA SPACE-TRACK.ORG API,2019-01-18T17:17:23,18 SPCS,BREEZE-M R/B,2000-029B,EARTH,TEME,UTC,SGP4,2019-01-17T19:13:11.088192,1.0031107,0.0271144,12.083,26.4071,268.9991,278.9935,0,U,26373,999,6826,0.0,-7.8e-07,0,42153.722,1435.534,36918.56,34632.614,ROCKET BODY,LARGE,CIS,2000-06-06,TTMTR,,2396924,126078703,0 BREEZE-M R/B,1 26373U 00029B   19017.80082278 -.00000078 +00000-0 +00000-0 0  9991,2 26373 012.0830 026.4071 0271144 268.9991 278.9935 01.00311070068268
2,GENERATED VIA SPACE-TRACK.ORG API,2019-01-19T05:06:41,18 SPCS,BREEZE-M R/B,2000-029B,EARTH,TEME,UTC,SGP4,2019-01-18T14:05:05.082432,1.00311183,0.0271123,12.0836,26.4003,269.0233,202.8356,0,U,26373,999,6827,0.0,-8e-07,0,42153.69,1435.532,36918.439,34632.672,ROCKET BODY,LARGE,CIS,2000-06-06,TTMTR,,2397069,126089360,0 BREEZE-M R/B,1 26373U 00029B   19018.58686438 -.00000080 +00000-0 +00000-0 0  9998,2 26373 012.0836 026.4003 0271123 269.0233 202.8356 01.00311183068276
2,GENERATED VIA SPACE-TRACK.ORG API,2019-01-19T18:31:39,18 SPCS,BREEZE-M R/B,2000-029B,EARTH,TEME,UTC,SGP4,2019-01-18T19:35:43.008864,1.00311208,0.0271124,12.0837,26.3983,269.0306,285.7464,0,U,26373,999,6827,0.0,-8e-07,0,42153.683,1435.532,36918.436,34632.661,ROCKET BODY,LARGE,CIS,2000-06-06,TTMTR,,2397439,126106528,0 BREEZE-M R/B,1 26373U 00029B   19018.81647001 -.00000080 +00000-0 +00000-0 0  9997,2 26373 012.0837 026.3983 0271124 269.0306 285.7464 01.00311208068273
2,GENERATED VIA SPACE-TRACK.ORG API,2019-01-20T06:48:14,18 SPCS,BREEZE-M R/B,2000-029B,EARTH,TEME,UTC,SGP4,2019-01-19T07:25:49.986048,1.00311269,0.0271111,12.0841,26.394,269.0457,103.8193,0,U,26373,999,6828,0.0,-8.2e-07,0,42153.666,1435.531,36918.364,34632.699,ROCKET BODY,LARGE,CIS,2000-06-06,TTMTR,,2397727,126121410,0 BREEZE-M R/B,1 26373U 00029B   19019.30960632 -.00000082 +00000-0 +00000-0 0  9992,2 26373 012.0841 026.3940 0271111 269.0457 103.8193 01.00311269068281
2,GENERATED VIA SPACE-TRACK.ORG API,2019-01-19T22:18:17,18 SPCS,BREEZE-M R/B,2000-029B,EARTH,TEME,UTC,SGP4,2019-01-19T19:27:46.245888,1.00311334,0.027111,12.0844,26.3897,269.0559,284.862,0,U,26373,999,6827,0.0,-8.4e-07,0,42153.648,1435.53,36918.341,34632.686,ROCKET BODY,LARGE,CIS,2000-06-06,TTMTR,,2397461,126110510,0 BREEZE-M R/B,1 26373U 00029B   19019.81095192 -.00000084  00000-0  00000+0 0  9999,2 26373  12.0844  26.3897 0271110 269.0559 284.8620  1.00311334 68274
2,GENERATED VIA SPACE-TRACK.ORG API,2019-01-21T04:53:08,18 SPCS,BREEZE-M R/B,2000-029B,EARTH,TEME,UTC,SGP4,2019-01-20T19:35:04.627392,1.0031147,0.02711,12.0852,26.3809,269.0821,287.8027,0,U,26373,999,6829,0.0,-8.8e-07,0,42153.61,1435.528,36918.259,34632.691,ROCKET BODY,LARGE,CIS,2000-06-06,TTMTR,,2397904,126143919,0 BREEZE-M R/B,1 26373U 00029B   19020.81602578 -.00000088 +00000-0 +00000-0 0  9998,2 26373 012.0852 026.3809 0271100 269.0821 287.8027 01.00311470068294
2,GENERATED VIA SPACE-TRACK.ORG API,2019-01-22T06:12:47,18 SPCS,BREEZE-M R/B,2000-029B,EARTH,TEME,UTC,SGP4,2019-01-21T06:59:28.020192,1.00311535,0.0271092,12.0855,26.3768,269.0969,99.4248,0,U,26373,999,6830,0.0,-9e-07,0,42153.592,1435.527,36918.207,34632.707,ROCKET BODY,LARGE,CIS,2000-06-06,TTMTR,,2398043,126159410,0 BREEZE-M R/B,1 26373U 00029B   19021.29129653 -.00000090 +00000-0 +00000-0 0  9992,2 26373 012.0855 026.3768 0271092 269.0969 099.4248 01.00311535068300
2,GENERATED VIA SPACE-TRACK.ORG API,2019-01-21T22:50:20,18 SPCS,BREEZE-M R/B,2000-029B,EARTH,TEME,UTC,SGP4,2019-01-21T19:42:18.619776,1.00311611,0.0271095,12.0859,26.3722,269.1084,290.7257,0,U,26373,999,6829,0.0,-9.3e-07,0,42153.57,1435.526,36918.198,34632.673,ROCKET BODY,LARGE,CIS,2000-06-06,TTMTR,,2397961,126151620,0 BREEZE-M R/B,1 26373U 00029B   19021.82104884 -.00000093  00000-0  00000+0 0  9992,2 26373  12.0859  26.3722 0271095 269.1084 290.7257  1.00311611 68295
2,GENERATED VIA SPACE-TRACK.ORG API,2019-01-23T05:33:49,18 SPCS,BREEZE-M R/B,2000-029B,EARTH,TEME,UTC,SGP4,2019-01-22T18:06:24.899904,1.00311735,0.0271094,12.0865,26.3641,269.1303,267.7898,0,U,26373,999,6831,0.0,-9.8e-07,0,42153.536,1435.524,36918.158,34632.644,ROCKET BODY,LARGE,CIS,2000-06-06,TTMTR,,2398549,126190715,0 BREEZE-M R/B,1 26373U 00029B   19022.75445486 -.00000098 +00000-0 +00000-0 0  9997,2 26373 012.0865 026.3641 0271094 269.1303 267.7898 01.00311735068310
2,GENERATED VIA SPACE-TRACK.ORG API,2019-01-24T06:31:59,18 SPCS,BREEZE-M R/B,2000-029B,EARTH,TEME,UTC,SGP4,2019-01-23T07:38:31.184736,1.00311812,0.0271091,12.0869,26.3592,269.1471,111.4397,0,U,26373,999,6832,0.0,-1.01e-06,0,42153.514,1435.523,36918.123,34632.635,ROCKET BODY,LARGE,CIS,2000-06-06,TTMTR,,2399205,126215715,0 BREEZE-M R/B,1 26373U 00029B   19023.31841649 -.00000101 +00000-0 +00000-0 0  9996,2 26373 012.0869 026.3592 0271091 269.1471 111.4397 01.00311812068328
2,GENERATED VIA SPACE-TRACK.ORG API,2019-01-24T14:18:19,18 SPCS,BREEZE-M R/B,2000-029B,EARTH,TEME,UTC,SGP4,2019-01-24T07:02:50.546112,1.00311946,0.0271097,12.0876,26.3507,269.1737,103.602,0,U,26373,999,6832,0.0,-1.06e-06,0,42153.477,1435.521,36918.11,34632.574,ROCKET BODY,LARGE,CIS,2000-06-06,TTMTR,,2399374,126221875,0 BREEZE-M R/B,1 26373U 00029B   19024.29364058 -.00000106  00000-0  00000+0 0  9992,2 26373  12.0876  26.3507 0271097 269.1737 103.6020  1.00311946 68327
2,GENERATED VIA SPACE-TRACK.ORG API,2019-01-25T17:09:52,18 SPCS,BREEZE-M R/B,2000-029B,EARTH,TEME,UTC,SGP4,2019-01-24T18:20:56.623200,1.00312012,0.0271102,12.088,26.3467,269.1849,273.6514,0,U,26373,999,6833,0.0,-1.08e-06,0,42153.458,1435.521,36918.112,34632.534,ROCKET BODY,LARGE,CIS,2000-06-06,TTMTR,,2399781,126245017,0 BREEZE-M R/B,1 26373U 00029B   19024.76454425 -.00000108 +00000-0 +00000-0 0  9995,2 26373 012.0880 026.3467 0271102 269.1849 273.6514 01.00312012068330
2,GENERATED VIA SPACE-TRACK.ORG API,2019-01-26T18:36:24,18 SPCS,BREEZE-M R/B,2000-029B,EARTH,TEME,UTC,SGP4,2019-01-25T18:28:16.718880,1.00312145,0.0271112,12.0887,26.338,269.2131,276.5994,0,U,26373,999,6834,0.0,-1.12e-06,0,42153.421,1435.519,36918.116,34632.456,ROCKET BODY,LARGE,CIS,2000-06-06,TTMTR,,2400444,126268696,0 BREEZE-M R/B,1 26373U 00029B   19025.76963795 -.00000112 +00000-0 +00000-0 0  9996,2 26373 012.0887 026.3380 0271112 269.2131 276.5994 01.00312145068349
2,GENERATED VIA SPACE-TRACK.ORG API,2019-01-27T04:57:40,18 SPCS,BREEZE-M R/B,2000-029B,EARTH,TEME,UTC,SGP4,2019-01-26T06:33:36.470592,1.00312214,0.0271115,12.089,26.3337,269.2292,98.4884,0,U,26373,999,6835,0.0,-1.14e-06,0,42153.402,1435.518,36918.109,34632.425,ROCKET BODY,LARGE,CIS,2000-06-06,TTMTR,,2400611,126282944,0 BREEZE-M R/B,1 26373U 00029B   19026.27333878 -.00000114 +00000-0 +00000-0 0  9998,2 26373 012.0890 026.3337 0271115 269.2292 098.4884 01.00312214068353
2,GENERATED VIA SPACE-TRACK.ORG API,2019-01-26T22:14:18,18 SPCS,BREEZE-M R/B,2000-029B,EARTH,TEME,UTC,SGP4,2019-01-26T18:35:32.725248,1.00312282,0.0271121,12.0894,26.3294,269.2428,279.5294,0,U,26373,999,6834,0.0,-1.16e-06,0,42153.383,1435.517,36918.114,34632.381,ROCKET BODY,LARGE,CIS,2000-06-06,TTMTR,,2400471,126274983,0 BREEZE-M R/B,1 26373U 00029B   19026.77468432 -.00000116  00000-0  00000+0 0  9999,2 26373  12.0894  26.3294 0271121 269.2428 279.5294  1.00312282 68348
